[{"OBJECT_NAME":"HEAD-3A","OBJECT_ID":"2023-121A","EPOCH":"2026-03-09T23:13:19.514208","MEAN_MOTION":14.60504198,"ECCENTRICITY":0.00053162,"INCLINATION":45.0013,"RA_OF_ASC_NODE":79.5453,"ARG_OF_PERICENTER":132.961,"MEAN_ANOMALY":227.1693,"EPHEMERIS_TYPE":0,"CLASSIFICATION_TYPE":"U","NORAD_CAT_ID":57626,"ELEMENT_SET_NO":999,"REV_AT_EPOCH":13707,"BSTAR":0.00022333117,"MEAN_MOTION_DOT":9.35e-6,"MEAN_MOTION_DDOT":0},{"OBJECT_NAME":"FENGYUN 1C DEB","OBJECT_ID":"1999-025AGK","EPOCH":"2026-03-09T20:22:37.564896","MEAN_MOTION":14.5587551,"ECCENTRICITY":0.00390794,"INCLINATION":98.6473,"RA_OF_ASC_NODE":177.9493,"ARG_OF_PERICENTER":172.2857,"MEAN_ANOMALY":317.2282,"EPHEMERIS_TYPE":0,"CLASSIFICATION_TYPE":"U","NORAD_CAT_ID":30472,"ELEMENT_SET_NO":999,"REV_AT_EPOCH":99307,"BSTAR":0.0028262056,"MEAN_MOTION_DOT":0.000125,"MEAN_MOTION_DDOT":0}]
